SCD 1                   
1 22490U 93009B   26200.89308296  .00000298  00000+0  30603-4 0  9997
2 22490  24.9708   5.6350 0042037 123.9966  29.1906 14.46129704765856
TECHSAT 1B (GO-32)      
1 25397U 98043D   26201.42974299  .00000017  00000+0  27497-4 0  9997
2 25397  99.0089 195.0299 0002307 106.7809 253.3622 14.24433990456064
SCD 2                   
1 25504U 98060A   26201.36582919  .00000267  00000+0  23850-4 0  9999
2 25504  24.9937 227.5486 0016975 113.3380 269.6052 14.45535699465133
DLR-TUBSAT              
1 25757U 99029B   26201.49845778  .00000017  00000+0  16035-4 0  9994
2 25757  98.6714 198.1017 0013062 247.2401 112.7414 14.52433892438086
MAROC-TUBSAT            
1 27004U 01056D   26201.37162580 -.00000039  00000+0  86953-5 0  9996
2 27004  99.8103  18.8595 0020523  59.3212   6.8618 13.70263604230731
AQUA                    
1 27424U 02022A   26201.59890731  .00000387  00000+0  86838-4 0  9992
2 27424  98.4300 171.5543 0001306 102.1203  27.8992 14.62133097288157
SHIYAN-1 (SY-1)         
1 28220U 04012A   26201.18659579  .00007068  00000+0  21394-3 0  9994
2 28220  97.8677 281.4171 0004250 251.5023 108.5757 15.34524431216153
AURA                    
1 28376U 04026A   26201.53652960  .00000395  00000+0  89737-4 0  9999
2 28376  98.3433 158.2703 0001399  93.9388 266.1972 14.61372341171088
IRS-P5 (CARTOSAT-1)     
1 28649U 05017A   26201.29609458  .00000644  00000+0  70180-4 0  9999
2 28649  97.5306 222.8591 0001045  54.5474 305.5843 14.91124795148755
SINAH 1                 
1 28893U 05043D   26201.60851948  .00000154  00000+0  38573-4 0  9993
2 28893  98.2901 336.1347 0014779 166.8113 193.3478 14.64177543105410
RESURS-DK 1             
1 29228U 06021A   26201.41611342  .00000982  00000+0  61107-4 0  9992
2 29228  69.9301 253.5278 0007419 265.4127  94.6192 15.13330043107601
ARIRANG-2 (KOMPSAT-2)   
1 29268U 06031A   26201.63616803 -.00000013  00000+0  61225-5 0  9996
2 29268  97.8321  24.4657 0013768 333.1463 115.2229 14.64676913 66376
LAPAN-TUBSAT            
1 29709U 07001A   26201.58631084  .00000036  00000+0  10779-4 0  9997
2 29709  98.1361 201.5662 0013680  78.1189 282.1559 14.85979657 56117
HAIYANG-1B              
1 31113U 07010A   26201.35680707  .00000046  00000+0  33107-4 0  9991
2 31113  98.3519 181.9193 0014793 101.7483 258.5361 14.31034151  5385
COSMO-SKYMED 1          
1 31598U 07023A   26201.61872551  .00001904  00000+0  16970-3 0  9993
2 31598  97.8854  33.7580 0001786  97.0225 263.1200 14.97238293 34797
TERRASAR-X              
1 31698U 07026A   26201.45521513  .00000429  00000+0  23629-4 0  9999
2 31698  97.4462 208.6875 0001654  86.3294 273.8130 15.19149077 58275
WORLDVIEW-1 (WV-1)      
1 32060U 07041A   26201.57143329  .00003527  00000+0  14597-3 0  9993
2 32060  97.3904 320.8491 0002061 184.8634 175.2584 15.24593998 47968
YAOGAN-3                
1 32289U 07055A   26201.61900049  .00000943  00000+0  10128-3 0  9991
2 32289  97.8139 231.1666 0001357  81.0584 279.0788 14.90891271 10857
COSMO-SKYMED 2          
1 32376U 07059A   26201.64627986  .00000177  00000+0  28785-4 0  9999
2 32376  97.8897  24.7606 0001463  93.9292 266.2089 14.82152985  6963
RADARSAT-2              
1 32382U 07061A   26201.55385355  .00000258  00000+0  11688-3 0  9993
2 32382  98.5788 208.0104 0001329  85.4734 274.6601 14.29984841970727
